{
  "type": "Feature",
  "properties": {
    "operator_id": "Operator 4",
    "site_id": "Bay area",
    "metro_locality": "SFO Bay area",
    "operational_area_definition": {
      "type": "MultiCircle",
      "circles": [
        {
          "type": "Circle",
          "center_point": {
            "latitude": 37.3824344,
            "longitude": -122.1308899
          },
          "radius_meters": 2937.74
        },
        {
          "type": "Circle",
          "center_point": {
            "latitude": 37.3573322,
            "longitude": -121.9774246
          },
          "radius_meters": 3817.75
        }
      ]
    },
    "center_points": [
      {
        "latitude": 37.3824344,
        "longitude": -122.1308899
      },
      {
        "latitude": 37.3573322,
        "longitude": -121.9774246
      }
    ],
    "geographic_bounds": {
      "south": 37.3229983,
      "west": -122.1641389,
      "north": 37.4088541,
      "east": -121.9342301
    }
  },
  "geometry": {
    "type": "MultiPolygon",
    "coordinates": [
      [
        [
          [
            -121.9731889,
            37.3915006
          ],
          [
            -121.968994,
            37.391006
          ],
          [
            -121.9648804,
            37.3901869
          ],
          [
            -121.9608878,
            37.3890513
          ],
          [
            -121.9570547,
            37.3876102
          ],
          [
            -121.9534179,
            37.3858773
          ],
          [
            -121.9500127,
            37.3838694
          ],
          [
            -121.9468717,
            37.3816059
          ],
          [
            -121.9440252,
            37.3791086
          ],
          [
            -121.9415006,
            37.3764016
          ],
          [
            -121.9393223,
            37.3735109
          ],
          [
            -121.9375112,
            37.3704645
          ],
          [
            -121.9360846,
            37.3672916
          ],
          [
            -121.9350564,
            37.3640228
          ],
          [
            -121.9344363,
            37.3606897
          ],
          [
            -121.9342302,
            37.3573243
          ],
          [
            -121.9344401,
            37.3539591
          ],
          [
            -121.9350639,
            37.3506265
          ],
          [
            -121.9360956,
            37.3473584
          ],
          [
            -121.9375251,
            37.3441865
          ],
          [
            -121.9393387,
            37.3411413
          ],
          [
            -121.9415189,
            37.3382519
          ],
          [
            -121.9440446,
            37.3355464
          ],
          [
            -121.9468914,
            37.3330506
          ],
          [
            -121.950032,
            37.3307887
          ],
          [
            -121.9534362,
            37.3287823
          ],
          [
            -121.9570711,
            37.3270507
          ],
          [
            -121.9609018,
            37.3256108
          ],
          [
            -121.9648914,
            37.3244761
          ],
          [
            -121.9690016,
            37.3236578
          ],
          [
            -121.9731927,
            37.3231636
          ],
          [
            -121.9774246,
            37.3229984
          ],
          [
            -121.9816565,
            37.3231636
          ],
          [
            -121.9858476,
            37.3236578
          ],
          [
            -121.9899578,
            37.3244761
          ],
          [
            -121.9939474,
            37.3256108
          ],
          [
            -121.9977781,
            37.3270507
          ],
          [
            -122.001413,
            37.3287823
          ],
          [
            -122.0048172,
            37.3307887
          ],
          [
            -122.0079578,
            37.3330506
          ],
          [
            -122.0108046,
            37.3355464
          ],
          [
            -122.0133303,
            37.3382519
          ],
          [
            -122.0155105,
            37.3411413
          ],
          [
            -122.0173241,
            37.3441865
          ],
          [
            -122.0187536,
            37.3473584
          ],
          [
            -122.0197853,
            37.3506265
          ],
          [
            -122.0204091,
            37.3539591
          ],
          [
            -122.020619,
            37.3573243
          ],
          [
            -122.0204129,
            37.3606897
          ],
          [
            -122.0197928,
            37.3640228
          ],
          [
            -122.0187646,
            37.3672916
          ],
          [
            -122.017338,
            37.3704645
          ],
          [
            -122.0155269,
            37.3735109
          ],
          [
            -122.0133486,
            37.3764016
          ],
          [
            -122.010824,
            37.3791086
          ],
          [
            -122.0079775,
            37.3816059
          ],
          [
            -122.0048365,
            37.3838694
          ],
          [
            -122.0014313,
            37.3858773
          ],
          [
            -121.9977945,
            37.3876102
          ],
          [
            -121.9939614,
            37.3890513
          ],
          [
            -121.9899688,
            37.3901869
          ],
          [
            -121.9858552,
            37.391006
          ],
          [
            -121.9816603,
            37.3915006
          ],
          [
            -121.9774246,
            37.391666
          ],
          [
            -121.9731889,
            37.3915006
          ]
        ]
      ],
      [
        [
          [
            -122.1276298,
            37.4087268
          ],
          [
            -122.1244011,
            37.4083463
          ],
          [
            -122.121235,
            37.4077161
          ],
          [
            -122.1181619,
            37.4068423
          ],
          [
            -122.1152116,
            37.4057335
          ],
          [
            -122.1124123,
            37.4044001
          ],
          [
            -122.1097912,
            37.4028552
          ],
          [
            -122.1073734,
            37.4011136
          ],
          [
            -122.1051823,
            37.3991921
          ],
          [
            -122.1032389,
            37.3971092
          ],
          [
            -122.101562,
            37.3948849
          ],
          [
            -122.1001677,
            37.3925408
          ],
          [
            -122.0990693,
            37.3900994
          ],
          [
            -122.0982775,
            37.3875841
          ],
          [
            -122.0977998,
            37.3850194
          ],
          [
            -122.0976409,
            37.3824297
          ],
          [
            -122.0978021,
            37.3798402
          ],
          [
            -122.098282,
            37.3772757
          ],
          [
            -122.0990758,
            37.3747609
          ],
          [
            -122.100176,
            37.37232
          ],
          [
            -122.1015718,
            37.3699766
          ],
          [
            -122.1032498,
            37.3677532
          ],
          [
            -122.1051938,
            37.3656711
          ],
          [
            -122.1073852,
            37.3637505
          ],
          [
            -122.1098027,
            37.3620098
          ],
          [
            -122.1124231,
            37.3604658
          ],
          [
            -122.1152213,
            37.3591333
          ],
          [
            -122.1181702,
            37.3580251
          ],
          [
            -122.1212415,
            37.3571519
          ],
          [
            -122.1244056,
            37.3565222
          ],
          [
            -122.1276321,
            37.3561419
          ],
          [
            -122.1308899,
            37.3560147
          ],
          [
            -122.1341477,
            37.3561419
          ],
          [
            -122.1373742,
            37.3565222
          ],
          [
            -122.1405383,
            37.3571519
          ],
          [
            -122.1436096,
            37.3580251
          ],
          [
            -122.1465585,
            37.3591333
          ],
          [
            -122.1493567,
            37.3604658
          ],
          [
            -122.1519771,
            37.3620098
          ],
          [
            -122.1543946,
            37.3637505
          ],
          [
            -122.156586,
            37.3656711
          ],
          [
            -122.15853,
            37.3677532
          ],
          [
            -122.160208,
            37.3699766
          ],
          [
            -122.1616038,
            37.37232
          ],
          [
            -122.162704,
            37.3747609
          ],
          [
            -122.1634978,
            37.3772757
          ],
          [
            -122.1639777,
            37.3798402
          ],
          [
            -122.1641389,
            37.3824297
          ],
          [
            -122.16398,
            37.3850194
          ],
          [
            -122.1635023,
            37.3875841
          ],
          [
            -122.1627105,
            37.3900994
          ],
          [
            -122.1616121,
            37.3925408
          ],
          [
            -122.1602178,
            37.3948849
          ],
          [
            -122.1585409,
            37.3971092
          ],
          [
            -122.1565975,
            37.3991921
          ],
          [
            -122.1544064,
            37.4011136
          ],
          [
            -122.1519886,
            37.4028552
          ],
          [
            -122.1493675,
            37.4044001
          ],
          [
            -122.1465682,
            37.4057335
          ],
          [
            -122.1436179,
            37.4068423
          ],
          [
            -122.1405448,
            37.4077161
          ],
          [
            -122.1373787,
            37.4083463
          ],
          [
            -122.13415,
            37.4087268
          ],
          [
            -122.1308899,
            37.4088541
          ],
          [
            -122.1276298,
            37.4087268
          ]
        ]
      ]
    ]
  }
}
