{
  "type": "Feature",
  "properties": {
    "operator_id": "Operator -4",
    "site_id": "Dallas",
    "metro_locality": "DFW",
    "operational_area_definition": {
      "type": "MultiCircle",
      "circles": [
        {
          "type": "Circle",
          "center_point": {
            "latitude": 32.7767,
            "longitude": -96.797
          },
          "radius_meters": 8046.72
        },
        {
          "type": "Circle",
          "center_point": {
            "latitude": 32.8132472,
            "longitude": -96.6309357
          },
          "radius_meters": 5006.34
        }
      ]
    },
    "center_points": [
      {
        "latitude": 32.7767,
        "longitude": -96.797
      },
      {
        "latitude": 32.8132472,
        "longitude": -96.6309357
      }
    ],
    "geographic_bounds": {
      "south": 32.7043341,
      "west": -96.8830693,
      "north": 32.8582702,
      "east": -96.5773649
    }
  },
  "geometry": {
    "type": "MultiPolygon",
    "coordinates": [
      [
        [
          [-96.7885569,32.848717],[-96.7801953,32.8476742],[-96.771996,32.8459473],[-96.764038,32.843553],[-96.7563982,32.8405144],[-96.7491502,32.8368609],[-96.742364,32.8326277],[-96.7361049,32.8278556],[-96.7304333,32.8225908],[-96.7254038,32.8168839],[-96.7210647,32.8107901],[-96.7174577,32.8043681],[-96.7146175,32.7976797],[-96.7125713,32.7907896],[-96.7113385,32.7837639],[-96.7109309,32.7766706],[-96.7113522,32.7695778],[-96.7125981,32.7625538],[-96.7146564,32.7556664],[-96.7175072,32.7489817],[-96.7211229,32.7425641],[-96.7254685,32.7364754],[-96.730502,32.7307741],[-96.7361749,32.725515],[-96.7424326,32.7207487],[-96.7492148,32.716521],[-96.7564564,32.7128725],[-96.7640875,32.7098384],[-96.7720349,32.7074478],[-96.7802221,32.7057236],[-96.7885706,32.7046824],[-96.797,32.7043342],[-96.8054294,32.7046824],[-96.8137779,32.7057236],[-96.8219651,32.7074478],[-96.8299125,32.7098384],[-96.8375436,32.7128725],[-96.8447852,32.716521],[-96.8515674,32.7207487],[-96.8578251,32.725515],[-96.863498,32.7307741],[-96.8685315,32.7364754],[-96.8728771,32.7425641],[-96.8764928,32.7489817],[-96.8793436,32.7556664],[-96.8814019,32.7625538],[-96.8826478,32.7695778],[-96.8830691,32.7766706],[-96.8826615,32.7837639],[-96.8814287,32.7907896],[-96.8793825,32.7976797],[-96.8765423,32.8043681],[-96.8729353,32.8107901],[-96.8685962,32.8168839],[-96.8635667,32.8225908],[-96.8578951,32.8278556],[-96.851636,32.8326277],[-96.8448498,32.8368609],[-96.8376018,32.8405144],[-96.829962,32.843553],[-96.822004,32.8459473],[-96.8138047,32.8476742],[-96.8054431,32.848717],[-96.797,32.8490658],[-96.7885569,32.848717]
        ]
      ],
      [
        [
          [-96.6256822,32.8580533],[-96.6204794,32.8574047],[-96.6153774,32.8563306],[-96.6104255,32.8548414],[-96.6056714,32.8529514],[-96.6011609,32.850679],[-96.5969375,32.8480459],[-96.5930419,32.8450776],[-96.5895117,32.8418027],[-96.5863807,32.8382528],[-96.5836793,32.834462],[-96.5814332,32.830467],[-96.5796642,32.8263062],[-96.5783892,32.8220198],[-96.5776203,32.8176489],[-96.577365,32.8132358],[-96.5776256,32.8088229],[-96.5783995,32.8044527],[-96.5796793,32.8001673],[-96.5814524,32.7960079],[-96.5837018,32.7920146],[-96.5864058,32.7882259],[-96.5895383,32.7846781],[-96.5930691,32.7814054],[-96.5969641,32.7784393],[-96.6011859,32.7758084],[-96.6056939,32.7735379],[-96.6104447,32.7716497],[-96.6153925,32.7701619],[-96.6204898,32.7690888],[-96.6256875,32.7684409],[-96.6309357,32.7682242],[-96.6361839,32.7684409],[-96.6413816,32.7690888],[-96.6464789,32.7701619],[-96.6514267,32.7716497],[-96.6561775,32.7735379],[-96.6606855,32.7758084],[-96.6649073,32.7784393],[-96.6688023,32.7814054],[-96.6723331,32.7846781],[-96.6754656,32.7882259],[-96.6781696,32.7920146],[-96.680419,32.7960079],[-96.6821921,32.8001673],[-96.6834719,32.8044527],[-96.6842458,32.8088229],[-96.6845064,32.8132358],[-96.6842511,32.8176489],[-96.6834822,32.8220198],[-96.6822072,32.8263062],[-96.6804382,32.830467],[-96.6781921,32.834462],[-96.6754907,32.8382528],[-96.6723597,32.8418027],[-96.6688295,32.8450776],[-96.6649339,32.8480459],[-96.6607105,32.850679],[-96.6562,32.8529514],[-96.6514459,32.8548414],[-96.646494,32.8563306],[-96.641392,32.8574047],[-96.6361892,32.8580533],[-96.6309357,32.8582702],[-96.6256822,32.8580533]
        ]
      ]
    ]
  }
}