{
  "type": "Feature",
  "properties": {
    "operator_id": "Operator -002",
    "site_id": "Seattle Area",
    "metro_locality": "Seattle Metro",
    "center_point": {
      "latitude": 47.502359,
      "longitude": -123.1567383
    },
    "operational_area_definition": {
      "type": "Circle",
      "center_point": {
        "latitude": 47.502359,
        "longitude": -123.1567383
      },
      "radius_meters": 100847.37
    },
    "geographic_bounds": {
      "south": 46.595417,
      "west": -124.49931,
      "north": 48.409301,
      "east": -121.814167
    }
  },
  "geometry": {
    "type": "Polygon",
    "coordinates": [
      [
        [
          -123.1567383,
          48.4092999
        ],
        [
          -123.022837,
          48.4048558
        ],
        [
          -122.890294,
          48.3915686
        ],
        [
          -122.7604521,
          48.369573
        ],
        [
          -122.634622,
          48.339092
        ],
        [
          -122.5140681,
          48.3004341
        ],
        [
          -122.3999938,
          48.2539896
        ],
        [
          -122.2935283,
          48.2002263
        ],
        [
          -122.1957145,
          48.1396841
        ],
        [
          -122.1074987,
          48.0729687
        ],
        [
          -122.0297209,
          48.0007454
        ],
        [
          -121.9631075,
          47.9237311
        ],
        [
          -121.9082657,
          47.842687
        ],
        [
          -121.8656783,
          47.7584104
        ],
        [
          -121.835702,
          47.6717265
        ],
        [
          -121.8185653,
          47.5834798
        ],
        [
          -121.8143691,
          47.4945257
        ],
        [
          -121.8230883,
          47.4057219
        ],
        [
          -121.8445745,
          47.3179207
        ],
        [
          -121.8785596,
          47.2319604
        ],
        [
          -121.9246613,
          47.1486576
        ],
        [
          -121.982388,
          47.0688001
        ],
        [
          -122.0511457,
          46.9931397
        ],
        [
          -122.130245,
          46.9223856
        ],
        [
          -122.2189084,
          46.8571984
        ],
        [
          -122.3162783,
          46.7981844
        ],
        [
          -122.4214256,
          46.7458909
        ],
        [
          -122.5333576,
          46.700801
        ],
        [
          -122.6510274,
          46.6633306
        ],
        [
          -122.7733424,
          46.6338242
        ],
        [
          -122.8991734,
          46.6125528
        ],
        [
          -123.0273637,
          46.5997116
        ],
        [
          -123.1567383,
          46.5954181
        ],
        [
          -123.2861129,
          46.5997116
        ],
        [
          -123.4143032,
          46.6125528
        ],
        [
          -123.5401342,
          46.6338242
        ],
        [
          -123.6624492,
          46.6633306
        ],
        [
          -123.780119,
          46.700801
        ],
        [
          -123.892051,
          46.7458909
        ],
        [
          -123.9971983,
          46.7981844
        ],
        [
          -124.0945682,
          46.8571984
        ],
        [
          -124.1832316,
          46.9223856
        ],
        [
          -124.2623309,
          46.9931397
        ],
        [
          -124.3310886,
          47.0688001
        ],
        [
          -124.3888153,
          47.1486576
        ],
        [
          -124.434917,
          47.2319604
        ],
        [
          -124.4689021,
          47.3179207
        ],
        [
          -124.4903883,
          47.4057219
        ],
        [
          -124.4991075,
          47.4945257
        ],
        [
          -124.4949113,
          47.5834798
        ],
        [
          -124.4777746,
          47.6717265
        ],
        [
          -124.4477983,
          47.7584104
        ],
        [
          -124.4052109,
          47.842687
        ],
        [
          -124.3503691,
          47.9237311
        ],
        [
          -124.2837557,
          48.0007454
        ],
        [
          -124.2059779,
          48.0729687
        ],
        [
          -124.1177621,
          48.1396841
        ],
        [
          -124.0199483,
          48.2002263
        ],
        [
          -123.9134828,
          48.2539896
        ],
        [
          -123.7994085,
          48.3004341
        ],
        [
          -123.6788546,
          48.339092
        ],
        [
          -123.5530245,
          48.369573
        ],
        [
          -123.4231826,
          48.3915686
        ],
        [
          -123.2906396,
          48.4048558
        ],
        [
          -123.1567383,
          48.4092999
        ]
      ]
    ]
  }
}
