{
  "type": "Feature",
  "properties": {
    "operator_id": "DEMO-CHARLIE",
    "site_id": "MTV-EAST-01",
    "metro_locality": "Mountain View, CA",
    "center_point": {
      "latitude": 37.405,
      "longitude": -122.085
    },
    "geographic_bounds": {
      "south": 37.39,
      "west": -122.10,
      "north": 37.42,
      "east": -122.07
    },
    "coordination_contact": "Taylor Kim | ops.charlie@example.com | +1-555-010-1003",
    "effective_from": "2026-09-18",
    "effective_to": "2026-12-31"
  },
  "geometry": {
    "type": "Polygon",
    "coordinates": [[[-122.10,37.42],[-122.07,37.42],[-122.07,37.39],[-122.10,37.39],[-122.10,37.42]]]
  }
}
