{
  "type": "Feature",
  "properties": {
    "operator_id": "OPERATOR-003",
    "site_id": "SITE-003",
    "metro_locality": "Philadelphia"
  },
  "geometry": {
    "type": "Polygon",
    "coordinates": [
      [
        [
          -121.93,
          37.35
        ],
        [
          -121.91,
          37.35
        ],
        [
          -121.91,
          37.335
        ],
        [
          -121.93,
          37.335
        ],
        [
          -121.93,
          37.35
        ]
      ]
    ]
  }
}
