{
  "type": "Feature",
  "properties": {
    "operator_id": "Operator-003",
    "site_id": "Suth Bay",
    "metro_locality": "SFO",
    "center_point": {
      "latitude": 37.375532,
      "longitude": -122.02858
    },
    "geographic_bounds": {
      "south": 37.264763,
      "west": -122.308731,
      "north": 37.486301,
      "east": -121.748428
    }
  },
  "geometry": {
    "type": "Polygon",
    "coordinates": [
      [
        [
          -122.308731,
          37.264763
        ],
        [
          -122.308731,
          37.486301
        ],
        [
          -121.748428,
          37.486301
        ],
        [
          -121.748428,
          37.264763
        ],
        [
          -122.308731,
          37.264763
        ]
      ]
    ]
  }
}
