{
  "type": "Feature",
  "properties": {
    "operator_id": "Operator-001",
    "site_id": "Oakland",
    "metro_locality": "Bay Area",
    "center_point": {
      "latitude": 37.8081565,
      "longitude": -122.2956848
    },
    "operational_area_definition": {
      "type": "Circle",
      "center_point": {
        "latitude": 37.8081565,
        "longitude": -122.2956848
      },
      "radius_meters": 5949.0
    },
    "geographic_bounds": {
      "south": 37.754656,
      "west": -122.363401,
      "north": 37.861657,
      "east": -122.227968
    }
  },
  "geometry": {
    "type": "Polygon",
    "coordinates": [
      [
        [
          -122.2956848,
          37.8616571
        ],
        [
          -122.2890426,
          37.8613993
        ],
        [
          -122.2824646,
          37.8606283
        ],
        [
          -122.2760141,
          37.8593517
        ],
        [
          -122.2697535,
          37.8575817
        ],
        [
          -122.2637431,
          37.8553355
        ],
        [
          -122.2580409,
          37.8526346
        ],
        [
          -122.2527019,
          37.8495052
        ],
        [
          -122.2477775,
          37.8459774
        ],
        [
          -122.2433152,
          37.8420853
        ],
        [
          -122.239358,
          37.8378664
        ],
        [
          -122.2359438,
          37.8333614
        ],
        [
          -122.2331056,
          37.8286137
        ],
        [
          -122.2308706,
          37.8236691
        ],
        [
          -122.2292601,
          37.8185753
        ],
        [
          -122.2282897,
          37.8133813
        ],
        [
          -122.2279684,
          37.8081371
        ],
        [
          -122.2282992,
          37.8028933
        ],
        [
          -122.2292789,
          37.7977004
        ],
        [
          -122.2308979,
          37.7926084
        ],
        [
          -122.2331403,
          37.7876662
        ],
        [
          -122.2359846,
          37.7829214
        ],
        [
          -122.2394033,
          37.7784198
        ],
        [
          -122.2433633,
          37.7742045
        ],
        [
          -122.2478266,
          37.7703162
        ],
        [
          -122.25275,
          37.7667922
        ],
        [
          -122.2580862,
          37.7636664
        ],
        [
          -122.2637839,
          37.7609689
        ],
        [
          -122.2697882,
          37.7587256
        ],
        [
          -122.2760414,
          37.756958
        ],
        [
          -122.2824834,
          37.7556832
        ],
        [
          -122.2890522,
          37.7549134
        ],
        [
          -122.2956848,
          37.7546559
        ],
        [
          -122.3023174,
          37.7549134
        ],
        [
          -122.3088862,
          37.7556832
        ],
        [
          -122.3153282,
          37.756958
        ],
        [
          -122.3215814,
          37.7587256
        ],
        [
          -122.3275857,
          37.7609689
        ],
        [
          -122.3332834,
          37.7636664
        ],
        [
          -122.3386196,
          37.7667922
        ],
        [
          -122.343543,
          37.7703162
        ],
        [
          -122.3480063,
          37.7742045
        ],
        [
          -122.3519663,
          37.7784198
        ],
        [
          -122.355385,
          37.7829214
        ],
        [
          -122.3582293,
          37.7876662
        ],
        [
          -122.3604717,
          37.7926084
        ],
        [
          -122.3620907,
          37.7977004
        ],
        [
          -122.3630704,
          37.8028933
        ],
        [
          -122.3634012,
          37.8081371
        ],
        [
          -122.3630799,
          37.8133813
        ],
        [
          -122.3621095,
          37.8185753
        ],
        [
          -122.360499,
          37.8236691
        ],
        [
          -122.358264,
          37.8286137
        ],
        [
          -122.3554258,
          37.8333614
        ],
        [
          -122.3520116,
          37.8378664
        ],
        [
          -122.3480544,
          37.8420853
        ],
        [
          -122.3435921,
          37.8459774
        ],
        [
          -122.3386677,
          37.8495052
        ],
        [
          -122.3333287,
          37.8526346
        ],
        [
          -122.3276265,
          37.8553355
        ],
        [
          -122.3216161,
          37.8575817
        ],
        [
          -122.3153555,
          37.8593517
        ],
        [
          -122.308905,
          37.8606283
        ],
        [
          -122.302327,
          37.8613993
        ],
        [
          -122.2956848,
          37.8616571
        ]
      ]
    ]
  }
}
