{
  "type": "Feature",
  "properties": {
    "operator_id": "Operator-001",
    "site_id": "Sunnyvale",
    "metro_locality": "South Bay, SFO",
    "center_point": {
      "latitude": 37.386252,
      "longitude": -122.063255
    },
    "geographic_bounds": {
      "south": 37.369611,
      "west": -122.121964,
      "north": 37.402892,
      "east": -122.004547
    },
    "coordination_contact": "555-878-0910",
    "effective_from": "2026-09-18",
    "effective_to": "2026-10-07"
  },
  "geometry": {
    "type": "Polygon",
    "coordinates": [
      [
        [
          -122.121964,
          37.369611
        ],
        [
          -122.121964,
          37.402892
        ],
        [
          -122.004547,
          37.402892
        ],
        [
          -122.004547,
          37.369611
        ],
        [
          -122.121964,
          37.369611
        ]
      ]
    ]
  }
}
