{
  "type": "Feature",
  "properties": {
    "operator_id": "Operator 2",
    "site_id": "CA",
    "metro_locality": "SFO",
    "center_point": {
      "latitude": 40.25152,
      "longitude": -119.913025
    },
    "geographic_bounds": {
      "south": 39.930801,
      "west": -121.624146,
      "north": 40.57224,
      "east": -118.201904
    },
    "effective_from": "2026-09-16",
    "effective_to": "2026-09-23"
  },
  "geometry": {
    "type": "Polygon",
    "coordinates": [
      [
        [
          -121.624146,
          39.930801
        ],
        [
          -121.624146,
          40.57224
        ],
        [
          -118.201904,
          40.57224
        ],
        [
          -118.201904,
          39.930801
        ],
        [
          -121.624146,
          39.930801
        ]
      ]
    ]
  }
}
